HORIZONS-3E             
1 43633U 18074B   25333.57614131 -.00000010  00000+0  00000+0 0  9993
2 43633   0.0276 202.2875 0000941 105.8779 136.9954  1.00268598 26333
AT&T T-16               
1 44333U 19034A   25332.91597309 -.00000095  00000+0  00000+0 0  9995
2 44333   0.0362  99.4593 0000824  55.7694 141.7379  1.00270958 23626
INTELSAT 39 (IS-39)     
1 44476U 19049B   25333.79160331  .00000055  00000+0  00000+0 0  9992
2 44476   0.0176 303.4735 0000660 183.5695 288.8225  1.00270726 23123
GALAXY 33 (G-33)        
1 54026U 22128A   25333.69433484  .00000100  00000+0  00000+0 0  9998
2 54026   0.0125 314.0880 0001824 287.0857 304.6289  1.00271707 11743
GALAXY 34 (G-34)        
1 54027U 22128B   25333.69511484  .00000000  00000+0  00000+0 0  9995
2 54027   0.0187 331.4395 0001394 271.9953 306.6875  1.00270652 11917
GALAXY 31 (G-31)        
1 54243U 22153A   25333.69676152  .00000034  00000+0  00000+0 0  9994
2 54243   0.0145 265.8451 0001725 353.5541 299.2817  1.00271487  5139
GALAXY 32 (G-32)        
1 54244U 22153B   25332.91787977 -.00000154  00000+0  00000+0 0  9991
2 54244   0.0088 353.8823 0002159 310.3444   3.2961  1.00271531 11132
GALAXY 35 (G-35)        
1 54741U 22170A   25333.63089442 -.00000141  00000+0  00000+0 0  9990
2 54741   0.0134 262.7452 0002483 351.8206 308.2536  1.00270991 10895
