{
  "type": "FeatureCollection",
  "features": [
    {
      "type": "Feature",
      "properties": {
        "OBJECT_NAME": "HORIZONS-3E",
        "OBJECT_ID": "2018-074B",
        "EPOCH": "2025-11-29T13:49:38.609184",
        "MEAN_MOTION": 1.00268598,
        "ECCENTRICITY": 9.41e-05,
        "INCLINATION": 0.0276,
        "RA_OF_ASC_NODE": 202.2875,
        "ARG_OF_PERICENTER": 105.8779,
        "MEAN_ANOMALY": 136.9954,
        "EPHEMERIS_TYPE": 0,
        "CLASSIFICATION_TYPE": "U",
        "NORAD_CAT_ID": 43633,
        "ELEMENT_SET_NO": 999,
        "REV_AT_EPOCH": 2633,
        "BSTAR": 0,
        "MEAN_MOTION_DOT": -1e-07,
        "MEAN_MOTION_DDOT": 0,
        "norad_id": 43633,
        "name": "HORIZONS-3E",
        "group": "intelsat",
        "longitude_deg": NaN,
        "latitude_deg": NaN,
        "alt_km": NaN,
        "orbit_class": "HEO",
        "timestamp": "2025-11-30T04:58:49.606205+00:00"
      },
      "geometry": {
        "type": "Point",
        "coordinates": [
          NaN,
          NaN
        ]
      }
    },
    {
      "type": "Feature",
      "properties": {
        "OBJECT_NAME": "AT&T T-16",
        "OBJECT_ID": "2019-034A",
        "EPOCH": "2025-11-28T21:59:00.074976",
        "MEAN_MOTION": 1.00270958,
        "ECCENTRICITY": 8.247e-05,
        "INCLINATION": 0.0362,
        "RA_OF_ASC_NODE": 99.4593,
        "ARG_OF_PERICENTER": 55.7694,
        "MEAN_ANOMALY": 141.7379,
        "EPHEMERIS_TYPE": 0,
        "CLASSIFICATION_TYPE": "U",
        "NORAD_CAT_ID": 44333,
        "ELEMENT_SET_NO": 999,
        "REV_AT_EPOCH": 2362,
        "BSTAR": 0,
        "MEAN_MOTION_DOT": -9.5e-07,
        "MEAN_MOTION_DDOT": 0,
        "norad_id": 44333,
        "name": "AT&T T-16",
        "group": "intelsat",
        "longitude_deg": NaN,
        "latitude_deg": NaN,
        "alt_km": NaN,
        "orbit_class": "HEO",
        "timestamp": "2025-11-30T04:58:49.607202+00:00"
      },
      "geometry": {
        "type": "Point",
        "coordinates": [
          NaN,
          NaN
        ]
      }
    },
    {
      "type": "Feature",
      "properties": {
        "OBJECT_NAME": "INTELSAT 39 (IS-39)",
        "OBJECT_ID": "2019-049B",
        "EPOCH": "2025-11-29T18:59:54.525984",
        "MEAN_MOTION": 1.00270726,
        "ECCENTRICITY": 6.6e-05,
        "INCLINATION": 0.0176,
        "RA_OF_ASC_NODE": 303.4735,
        "ARG_OF_PERICENTER": 183.5695,
        "MEAN_ANOMALY": 288.8225,
        "EPHEMERIS_TYPE": 0,
        "CLASSIFICATION_TYPE": "U",
        "NORAD_CAT_ID": 44476,
        "ELEMENT_SET_NO": 999,
        "REV_AT_EPOCH": 2312,
        "BSTAR": 0,
        "MEAN_MOTION_DOT": 5.5e-07,
        "MEAN_MOTION_DDOT": 0,
        "norad_id": 44476,
        "name": "INTELSAT 39 (IS-39)",
        "group": "intelsat",
        "longitude_deg": NaN,
        "latitude_deg": NaN,
        "alt_km": NaN,
        "orbit_class": "HEO",
        "timestamp": "2025-11-30T04:58:49.607352+00:00"
      },
      "geometry": {
        "type": "Point",
        "coordinates": [
          NaN,
          NaN
        ]
      }
    },
    {
      "type": "Feature",
      "properties": {
        "OBJECT_NAME": "GALAXY 33 (G-33)",
        "OBJECT_ID": "2022-128A",
        "EPOCH": "2025-11-29T16:39:50.530176",
        "MEAN_MOTION": 1.00271707,
        "ECCENTRICITY": 0.0001824,
        "INCLINATION": 0.0125,
        "RA_OF_ASC_NODE": 314.088,
        "ARG_OF_PERICENTER": 287.0857,
        "MEAN_ANOMALY": 304.6289,
        "EPHEMERIS_TYPE": 0,
        "CLASSIFICATION_TYPE": "U",
        "NORAD_CAT_ID": 54026,
        "ELEMENT_SET_NO": 999,
        "REV_AT_EPOCH": 1174,
        "BSTAR": 0,
        "MEAN_MOTION_DOT": 1e-06,
        "MEAN_MOTION_DDOT": 0,
        "norad_id": 54026,
        "name": "GALAXY 33 (G-33)",
        "group": "intelsat",
        "longitude_deg": NaN,
        "latitude_deg": NaN,
        "alt_km": NaN,
        "orbit_class": "HEO",
        "timestamp": "2025-11-30T04:58:49.628963+00:00"
      },
      "geometry": {
        "type": "Point",
        "coordinates": [
          NaN,
          NaN
        ]
      }
    },
    {
      "type": "Feature",
      "properties": {
        "OBJECT_NAME": "GALAXY 34 (G-34)",
        "OBJECT_ID": "2022-128B",
        "EPOCH": "2025-11-29T16:40:57.922176",
        "MEAN_MOTION": 1.00270652,
        "ECCENTRICITY": 0.0001394,
        "INCLINATION": 0.0187,
        "RA_OF_ASC_NODE": 331.4395,
        "ARG_OF_PERICENTER": 271.9953,
        "MEAN_ANOMALY": 306.6875,
        "EPHEMERIS_TYPE": 0,
        "CLASSIFICATION_TYPE": "U",
        "NORAD_CAT_ID": 54027,
        "ELEMENT_SET_NO": 999,
        "REV_AT_EPOCH": 1191,
        "BSTAR": 0,
        "MEAN_MOTION_DOT": 0,
        "MEAN_MOTION_DDOT": 0,
        "norad_id": 54027,
        "name": "GALAXY 34 (G-34)",
        "group": "intelsat",
        "longitude_deg": NaN,
        "latitude_deg": NaN,
        "alt_km": NaN,
        "orbit_class": "HEO",
        "timestamp": "2025-11-30T04:58:49.628971+00:00"
      },
      "geometry": {
        "type": "Point",
        "coordinates": [
          NaN,
          NaN
        ]
      }
    },
    {
      "type": "Feature",
      "properties": {
        "OBJECT_NAME": "GALAXY 31 (G-31)",
        "OBJECT_ID": "2022-153A",
        "EPOCH": "2025-11-29T16:43:20.195328",
        "MEAN_MOTION": 1.00271487,
        "ECCENTRICITY": 0.0001725,
        "INCLINATION": 0.0145,
        "RA_OF_ASC_NODE": 265.8451,
        "ARG_OF_PERICENTER": 353.5541,
        "MEAN_ANOMALY": 299.2817,
        "EPHEMERIS_TYPE": 0,
        "CLASSIFICATION_TYPE": "U",
        "NORAD_CAT_ID": 54243,
        "ELEMENT_SET_NO": 999,
        "REV_AT_EPOCH": 513,
        "BSTAR": 0,
        "MEAN_MOTION_DOT": 3.4e-07,
        "MEAN_MOTION_DDOT": 0,
        "norad_id": 54243,
        "name": "GALAXY 31 (G-31)",
        "group": "intelsat",
        "longitude_deg": NaN,
        "latitude_deg": NaN,
        "alt_km": NaN,
        "orbit_class": "HEO",
        "timestamp": "2025-11-30T04:58:49.629997+00:00"
      },
      "geometry": {
        "type": "Point",
        "coordinates": [
          NaN,
          NaN
        ]
      }
    },
    {
      "type": "Feature",
      "properties": {
        "OBJECT_NAME": "GALAXY 32 (G-32)",
        "OBJECT_ID": "2022-153B",
        "EPOCH": "2025-11-28T22:01:44.812128",
        "MEAN_MOTION": 1.00271531,
        "ECCENTRICITY": 0.00021599,
        "INCLINATION": 0.0088,
        "RA_OF_ASC_NODE": 353.8823,
        "ARG_OF_PERICENTER": 310.3444,
        "MEAN_ANOMALY": 3.2961,
        "EPHEMERIS_TYPE": 0,
        "CLASSIFICATION_TYPE": "U",
        "NORAD_CAT_ID": 54244,
        "ELEMENT_SET_NO": 999,
        "REV_AT_EPOCH": 1113,
        "BSTAR": 0,
        "MEAN_MOTION_DOT": -1.54e-06,
        "MEAN_MOTION_DDOT": 0,
        "norad_id": 54244,
        "name": "GALAXY 32 (G-32)",
        "group": "intelsat",
        "longitude_deg": NaN,
        "latitude_deg": NaN,
        "alt_km": NaN,
        "orbit_class": "HEO",
        "timestamp": "2025-11-30T04:58:49.630003+00:00"
      },
      "geometry": {
        "type": "Point",
        "coordinates": [
          NaN,
          NaN
        ]
      }
    },
    {
      "type": "Feature",
      "properties": {
        "OBJECT_NAME": "GALAXY 35 (G-35)",
        "OBJECT_ID": "2022-170A",
        "EPOCH": "2025-11-29T15:08:29.277888",
        "MEAN_MOTION": 1.00270991,
        "ECCENTRICITY": 0.0002483,
        "INCLINATION": 0.0134,
        "RA_OF_ASC_NODE": 262.7452,
        "ARG_OF_PERICENTER": 351.8206,
        "MEAN_ANOMALY": 308.2536,
        "EPHEMERIS_TYPE": 0,
        "CLASSIFICATION_TYPE": "U",
        "NORAD_CAT_ID": 54741,
        "ELEMENT_SET_NO": 999,
        "REV_AT_EPOCH": 1089,
        "BSTAR": 0,
        "MEAN_MOTION_DOT": -1.41e-06,
        "MEAN_MOTION_DDOT": 0,
        "norad_id": 54741,
        "name": "GALAXY 35 (G-35)",
        "group": "intelsat",
        "longitude_deg": NaN,
        "latitude_deg": NaN,
        "alt_km": NaN,
        "orbit_class": "HEO",
        "timestamp": "2025-11-30T04:58:49.630466+00:00"
      },
      "geometry": {
        "type": "Point",
        "coordinates": [
          NaN,
          NaN
        ]
      }
    }
  ]
}